{
  "type": "FeatureCollection",
  "count": 199,
  "features": [
    {
      "type": "Feature",
      "geometry": {
        "type": "Point",
        "coordinates": [
          -88.6505,
          40.1567
        ]
      },
      "properties": {
        "icao24": "a4d86a",
        "callsign": "LXJ411  ",
        "origin_country": "United States"
      }
    },
    {
      "type": "Feature",
      "geometry": {
        "type": "Point",
        "coordinates": [
          -87.7885,
          39.7909
        ]
      },
      "properties": {
        "icao24": "a27bf2",
        "callsign": "N25948  ",
        "origin_country": "United States"
      }
    },
    {
      "type": "Feature",
      "geometry": {
        "type": "Point",
        "coordinates": [
          -89.4161,
          39.4113
        ]
      },
      "properties": {
        "icao24": "a36880",
        "callsign": "N319CP  ",
        "origin_country": "United States"
      }
    },
    {
      "type": "Feature",
      "geometry": {
        "type": "Point",
        "coordinates": [
          -90.9447,
          39.7571
        ]
      },
      "properties": {
        "icao24": "ac7ce1",
        "callsign": "SWA1525 ",
        "origin_country": "United States"
      }
    },
    {
      "type": "Feature",
      "geometry": {
        "type": "Point",
        "coordinates": [
          -88.7022,
          40.2992
        ]
      },
      "properties": {
        "icao24": "0d11f9",
        "callsign": "VIV633  ",
        "origin_country": "Mexico"
      }
    },
    {
      "type": "Feature",
      "geometry": {
        "type": "Point",
        "coordinates": [
          -87.1451,
          38.4861
        ]
      },
      "properties": {
        "icao24": "ab14d9",
        "callsign": "DAL1246 ",
        "origin_country": "United States"
      }
    },
    {
      "type": "Feature",
      "geometry": {
        "type": "Point",
        "coordinates": [
          -90.8753,
          38.9028
        ]
      },
      "properties": {
        "icao24": "a03ca5",
        "callsign": "N114SF  ",
        "origin_country": "United States"
      }
    },
    {
      "type": "Feature",
      "geometry": {
        "type": "Point",
        "coordinates": [
          -88.7146,
          39.7136
        ]
      },
      "properties": {
        "icao24": "ac6a1f",
        "callsign": "SWA1663 ",
        "origin_country": "United States"
      }
    },
    {
      "type": "Feature",
      "geometry": {
        "type": "Point",
        "coordinates": [
          -88.6025,
          40.4626
        ]
      },
      "properties": {
        "icao24": "a09322",
        "callsign": "SKW435M ",
        "origin_country": "United States"
      }
    },
    {
      "type": "Feature",
      "geometry": {
        "type": "Point",
        "coordinates": [
          -88.9109,
          39.6145
        ]
      },
      "properties": {
        "icao24": "a88d47",
        "callsign": "FFT2345 ",
        "origin_country": "United States"
      }
    },
    {
      "type": "Feature",
      "geometry": {
        "type": "Point",
        "coordinates": [
          -90.3578,
          38.7388
        ]
      },
      "properties": {
        "icao24": "ac3751",
        "callsign": "SWA1798 ",
        "origin_country": "United States"
      }
    },
    {
      "type": "Feature",
      "geometry": {
        "type": "Point",
        "coordinates": [
          -88.5427,
          40.3058
        ]
      },
      "properties": {
        "icao24": "aad148",
        "callsign": "N7964W  ",
        "origin_country": "United States"
      }
    },
    {
      "type": "Feature",
      "geometry": {
        "type": "Point",
        "coordinates": [
          -87.9893,
          39.6241
        ]
      },
      "properties": {
        "icao24": "ac379a",
        "callsign": "SWA664  ",
        "origin_country": "United States"
      }
    },
    {
      "type": "Feature",
      "geometry": {
        "type": "Point",
        "coordinates": [
          -86.5344,
          40.2075
        ]
      },
      "properties": {
        "icao24": "a4a081",
        "callsign": "N398A   ",
        "origin_country": "United States"
      }
    },
    {
      "type": "Feature",
      "geometry": {
        "type": "Point",
        "coordinates": [
          -86.0603,
          39.9567
        ]
      },
      "properties": {
        "icao24": "a9a321",
        "callsign": "N72VU   ",
        "origin_country": "United States"
      }
    },
    {
      "type": "Feature",
      "geometry": {
        "type": "Point",
        "coordinates": [
          -86.065,
          38.926
        ]
      },
      "properties": {
        "icao24": "a2bb10",
        "callsign": "SWA574  ",
        "origin_country": "United States"
      }
    },
    {
      "type": "Feature",
      "geometry": {
        "type": "Point",
        "coordinates": [
          -86.736,
          38.1423
        ]
      },
      "properties": {
        "icao24": "a40e1c",
        "callsign": "UPS2904 ",
        "origin_country": "United States"
      }
    },
    {
      "type": "Feature",
      "geometry": {
        "type": "Point",
        "coordinates": [
          -86.0175,
          40.4363
        ]
      },
      "properties": {
        "icao24": "aa2b21",
        "callsign": "RPA3497 ",
        "origin_country": "United States"
      }
    },
    {
      "type": "Feature",
      "geometry": {
        "type": "Point",
        "coordinates": [
          -90.3334,
          38.7824
        ]
      },
      "properties": {
        "icao24": "a9b685",
        "callsign": "N725EB  ",
        "origin_country": "United States"
      }
    },
    {
      "type": "Feature",
      "geometry": {
        "type": "Point",
        "coordinates": [
          -90.1304,
          40.9927
        ]
      },
      "properties": {
        "icao24": "a27dac",
        "callsign": "N26LP   ",
        "origin_country": "United States"
      }
    },
    {
      "type": "Feature",
      "geometry": {
        "type": "Point",
        "coordinates": [
          -87.331,
          39.4348
        ]
      },
      "properties": {
        "icao24": "a11762",
        "callsign": "N17FS   ",
        "origin_country": "United States"
      }
    },
    {
      "type": "Feature",
      "geometry": {
        "type": "Point",
        "coordinates": [
          -90.086,
          38.1592
        ]
      },
      "properties": {
        "icao24": "a952a4",
        "callsign": "N70EL   ",
        "origin_country": "United States"
      }
    },
    {
      "type": "Feature",
      "geometry": {
        "type": "Point",
        "coordinates": [
          -90.569,
          38.8514
        ]
      },
      "properties": {
        "icao24": "a2dce1",
        "callsign": "ASA647  ",
        "origin_country": "United States"
      }
    },
    {
      "type": "Feature",
      "geometry": {
        "type": "Point",
        "coordinates": [
          -90.1587,
          39.8816
        ]
      },
      "properties": {
        "icao24": "a245fb",
        "callsign": "UAL1299 ",
        "origin_country": "United States"
      }
    },
    {
      "type": "Feature",
      "geometry": {
        "type": "Point",
        "coordinates": [
          -86.2431,
          37.836
        ]
      },
      "properties": {
        "icao24": "ac202d",
        "callsign": "N8800   ",
        "origin_country": "United States"
      }
    },
    {
      "type": "Feature",
      "geometry": {
        "type": "Point",
        "coordinates": [
          -90.5815,
          37.9762
        ]
      },
      "properties": {
        "icao24": "a9fb92",
        "callsign": "SKW6272 ",
        "origin_country": "United States"
      }
    },
    {
      "type": "Feature",
      "geometry": {
        "type": "Point",
        "coordinates": [
          -86.8791,
          39.551
        ]
      },
      "properties": {
        "icao24": "a24782",
        "callsign": "ENY4145 ",
        "origin_country": "United States"
      }
    },
    {
      "type": "Feature",
      "geometry": {
        "type": "Point",
        "coordinates": [
          -87.3627,
          40.3845
        ]
      },
      "properties": {
        "icao24": "abbefa",
        "callsign": "PDU56   ",
        "origin_country": "United States"
      }
    },
    {
      "type": "Feature",
      "geometry": {
        "type": "Point",
        "coordinates": [
          -90.4062,
          38.7715
        ]
      },
      "properties": {
        "icao24": "a53f5b",
        "callsign": "RPA4449 ",
        "origin_country": "United States"
      }
    },
    {
      "type": "Feature",
      "geometry": {
        "type": "Point",
        "coordinates": [
          -88.6701,
          39.518
        ]
      },
      "properties": {
        "icao24": "a3a3ea",
        "callsign": "N3334T  ",
        "origin_country": "United States"
      }
    },
    {
      "type": "Feature",
      "geometry": {
        "type": "Point",
        "coordinates": [
          -86.1267,
          39.9087
        ]
      },
      "properties": {
        "icao24": "a728c1",
        "callsign": "AAL2312 ",
        "origin_country": "United States"
      }
    },
    {
      "type": "Feature",
      "geometry": {
        "type": "Point",
        "coordinates": [
          -89.1009,
          38.311
        ]
      },
      "properties": {
        "icao24": "a728bd",
        "callsign": "N560US  ",
        "origin_country": "United States"
      }
    },
    {
      "type": "Feature",
      "geometry": {
        "type": "Point",
        "coordinates": [
          -86.9626,
          39.7212
        ]
      },
      "properties": {
        "icao24": "a83692",
        "callsign": "N62819  ",
        "origin_country": "United States"
      }
    },
    {
      "type": "Feature",
      "geometry": {
        "type": "Point",
        "coordinates": [
          -89.6964,
          40.5503
        ]
      },
      "properties": {
        "icao24": "ae52d3",
        "callsign": "BIGGIE6 ",
        "origin_country": "United States"
      }
    },
    {
      "type": "Feature",
      "geometry": {
        "type": "Point",
        "coordinates": [
          -90.5923,
          38.618
        ]
      },
      "properties": {
        "icao24": "a34764",
        "callsign": "LXJ310  ",
        "origin_country": "United States"
      }
    },
    {
      "type": "Feature",
      "geometry": {
        "type": "Point",
        "coordinates": [
          -86.5237,
          38.1393
        ]
      },
      "properties": {
        "icao24": "a5d713",
        "callsign": "UAL1397 ",
        "origin_country": "United States"
      }
    },
    {
      "type": "Feature",
      "geometry": {
        "type": "Point",
        "coordinates": [
          -90.7489,
          40.7711
        ]
      },
      "properties": {
        "icao24": "a3479e",
        "callsign": "VJA310  ",
        "origin_country": "United States"
      }
    },
    {
      "type": "Feature",
      "geometry": {
        "type": "Point",
        "coordinates": [
          -87.9161,
          40.5117
        ]
      },
      "properties": {
        "icao24": "a51f4a",
        "callsign": "RPA4651 ",
        "origin_country": "United States"
      }
    },
    {
      "type": "Feature",
      "geometry": {
        "type": "Point",
        "coordinates": [
          -90.0986,
          38.5324
        ]
      },
      "properties": {
        "icao24": "ac00d6",
        "callsign": "SWA290  ",
        "origin_country": "United States"
      }
    },
    {
      "type": "Feature",
      "geometry": {
        "type": "Point",
        "coordinates": [
          -86.1192,
          39.0207
        ]
      },
      "properties": {
        "icao24": "a3edcf",
        "callsign": "N352SD  ",
        "origin_country": "United States"
      }
    },
    {
      "type": "Feature",
      "geometry": {
        "type": "Point",
        "coordinates": [
          -87.2528,
          38.7103
        ]
      },
      "properties": {
        "icao24": "ad4584",
        "callsign": "SWA655  ",
        "origin_country": "United States"
      }
    },
    {
      "type": "Feature",
      "geometry": {
        "type": "Point",
        "coordinates": [
          -90.9393,
          38.9576
        ]
      },
      "properties": {
        "icao24": "a4c6a7",
        "callsign": "N407AE  ",
        "origin_country": "United States"
      }
    },
    {
      "type": "Feature",
      "geometry": {
        "type": "Point",
        "coordinates": [
          -89.382,
          37.0074
        ]
      },
      "properties": {
        "icao24": "a87aaa",
        "callsign": "WNG68B  ",
        "origin_country": "United States"
      }
    },
    {
      "type": "Feature",
      "geometry": {
        "type": "Point",
        "coordinates": [
          -87.6235,
          39.9263
        ]
      },
      "properties": {
        "icao24": "a223ba",
        "callsign": "ENY3425 ",
        "origin_country": "United States"
      }
    },
    {
      "type": "Feature",
      "geometry": {
        "type": "Point",
        "coordinates": [
          -89.3878,
          40.1453
        ]
      },
      "properties": {
        "icao24": "a70151",
        "callsign": "VOI7842 ",
        "origin_country": "United States"
      }
    },
    {
      "type": "Feature",
      "geometry": {
        "type": "Point",
        "coordinates": [
          -88.6052,
          40.9791
        ]
      },
      "properties": {
        "icao24": "a4c6af",
        "callsign": "AAL738  ",
        "origin_country": "United States"
      }
    },
    {
      "type": "Feature",
      "geometry": {
        "type": "Point",
        "coordinates": [
          -90.6411,
          38.9347
        ]
      },
      "properties": {
        "icao24": "ab5f43",
        "callsign": "SWA2558 ",
        "origin_country": "United States"
      }
    },
    {
      "type": "Feature",
      "geometry": {
        "type": "Point",
        "coordinates": [
          -86.1753,
          39.7872
        ]
      },
      "properties": {
        "icao24": "a4b55c",
        "callsign": "N402PH  ",
        "origin_country": "United States"
      }
    },
    {
      "type": "Feature",
      "geometry": {
        "type": "Point",
        "coordinates": [
          -87.3693,
          40.5445
        ]
      },
      "properties": {
        "icao24": "ac11ea",
        "callsign": "N877SC  ",
        "origin_country": "United States"
      }
    },
    {
      "type": "Feature",
      "geometry": {
        "type": "Point",
        "coordinates": [
          -87.2077,
          40.0186
        ]
      },
      "properties": {
        "icao24": "a01316",
        "callsign": "N1036U  ",
        "origin_country": "United States"
      }
    },
    {
      "type": "Feature",
      "geometry": {
        "type": "Point",
        "coordinates": [
          -87.2114,
          40.4383
        ]
      },
      "properties": {
        "icao24": "aba8b0",
        "callsign": "PDU50   ",
        "origin_country": "United States"
      }
    },
    {
      "type": "Feature",
      "geometry": {
        "type": "Point",
        "coordinates": [
          -87.9098,
          39.9517
        ]
      },
      "properties": {
        "icao24": "ac6622",
        "callsign": "SWA2123 ",
        "origin_country": "United States"
      }
    },
    {
      "type": "Feature",
      "geometry": {
        "type": "Point",
        "coordinates": [
          -86.415,
          40.5038
        ]
      },
      "properties": {
        "icao24": "a3b11e",
        "callsign": "AAL1111 ",
        "origin_country": "United States"
      }
    },
    {
      "type": "Feature",
      "geometry": {
        "type": "Point",
        "coordinates": [
          -90.0864,
          38.8734
        ]
      },
      "properties": {
        "icao24": "a1214e",
        "callsign": "N172HD  ",
        "origin_country": "United States"
      }
    },
    {
      "type": "Feature",
      "geometry": {
        "type": "Point",
        "coordinates": [
          -90.5341,
          38.942
        ]
      },
      "properties": {
        "icao24": "a1219b",
        "callsign": "N172LF  ",
        "origin_country": "United States"
      }
    },
    {
      "type": "Feature",
      "geometry": {
        "type": "Point",
        "coordinates": [
          -87.5826,
          39.2209
        ]
      },
      "properties": {
        "icao24": "a649b5",
        "callsign": "N504KH  ",
        "origin_country": "United States"
      }
    },
    {
      "type": "Feature",
      "geometry": {
        "type": "Point",
        "coordinates": [
          -88.5959,
          37.5254
        ]
      },
      "properties": {
        "icao24": "a373ea",
        "callsign": "AAL1450 ",
        "origin_country": "United States"
      }
    },
    {
      "type": "Feature",
      "geometry": {
        "type": "Point",
        "coordinates": [
          -86.5688,
          39.9571
        ]
      },
      "properties": {
        "icao24": "aa10ba",
        "callsign": "SKW4834 ",
        "origin_country": "United States"
      }
    },
    {
      "type": "Feature",
      "geometry": {
        "type": "Point",
        "coordinates": [
          -86.1391,
          40.6012
        ]
      },
      "properties": {
        "icao24": "acc6d1",
        "callsign": "AAL1724 ",
        "origin_country": "United States"
      }
    },
    {
      "type": "Feature",
      "geometry": {
        "type": "Point",
        "coordinates": [
          -89.7777,
          39.5446
        ]
      },
      "properties": {
        "icao24": "acb498",
        "callsign": "N918CC  ",
        "origin_country": "United States"
      }
    },
    {
      "type": "Feature",
      "geometry": {
        "type": "Point",
        "coordinates": [
          -86.7663,
          39.96
        ]
      },
      "properties": {
        "icao24": "a32f71",
        "callsign": "AAL255  ",
        "origin_country": "United States"
      }
    },
    {
      "type": "Feature",
      "geometry": {
        "type": "Point",
        "coordinates": [
          -89.9731,
          39.2514
        ]
      },
      "properties": {
        "icao24": "a2b560",
        "callsign": "LN274AH ",
        "origin_country": "United States"
      }
    },
    {
      "type": "Feature",
      "geometry": {
        "type": "Point",
        "coordinates": [
          -89.545,
          40.0201
        ]
      },
      "properties": {
        "icao24": "a43bc6",
        "callsign": "FFT687  ",
        "origin_country": "United States"
      }
    },
    {
      "type": "Feature",
      "geometry": {
        "type": "Point",
        "coordinates": [
          -90.5734,
          38.7509
        ]
      },
      "properties": {
        "icao24": "a3e88d",
        "callsign": "N351AJ  ",
        "origin_country": "United States"
      }
    },
    {
      "type": "Feature",
      "geometry": {
        "type": "Point",
        "coordinates": [
          -86.9318,
          40.6253
        ]
      },
      "properties": {
        "icao24": "abca1f",
        "callsign": "PDU59   ",
        "origin_country": "United States"
      }
    },
    {
      "type": "Feature",
      "geometry": {
        "type": "Point",
        "coordinates": [
          -86.2537,
          40.0565
        ]
      },
      "properties": {
        "icao24": "a93ee7",
        "callsign": "N695SP  ",
        "origin_country": "United States"
      }
    },
    {
      "type": "Feature",
      "geometry": {
        "type": "Point",
        "coordinates": [
          -87.3931,
          39.2107
        ]
      },
      "properties": {
        "icao24": "a264a4",
        "callsign": "SWA1747 ",
        "origin_country": "United States"
      }
    },
    {
      "type": "Feature",
      "geometry": {
        "type": "Point",
        "coordinates": [
          -86.0236,
          40.116
        ]
      },
      "properties": {
        "icao24": "a0aa65",
        "callsign": "N142CW  ",
        "origin_country": "United States"
      }
    },
    {
      "type": "Feature",
      "geometry": {
        "type": "Point",
        "coordinates": [
          -87.9153,
          37.7065
        ]
      },
      "properties": {
        "icao24": "ab1203",
        "callsign": "AAL1619 ",
        "origin_country": "United States"
      }
    },
    {
      "type": "Feature",
      "geometry": {
        "type": "Point",
        "coordinates": [
          -86.2676,
          40.0261
        ]
      },
      "properties": {
        "icao24": "ab6be7",
        "callsign": "LTA835  ",
        "origin_country": "United States"
      }
    },
    {
      "type": "Feature",
      "geometry": {
        "type": "Point",
        "coordinates": [
          -90.451,
          38.9415
        ]
      },
      "properties": {
        "icao24": "a9d796",
        "callsign": "N73855  ",
        "origin_country": "United States"
      }
    },
    {
      "type": "Feature",
      "geometry": {
        "type": "Point",
        "coordinates": [
          -88.8806,
          39.8423
        ]
      },
      "properties": {
        "icao24": "a613e0",
        "callsign": "ASA500  ",
        "origin_country": "United States"
      }
    },
    {
      "type": "Feature",
      "geometry": {
        "type": "Point",
        "coordinates": [
          -86.3639,
          39.8255
        ]
      },
      "properties": {
        "icao24": "a590ce",
        "callsign": "LTA458  ",
        "origin_country": "United States"
      }
    },
    {
      "type": "Feature",
      "geometry": {
        "type": "Point",
        "coordinates": [
          -89.288,
          39.8282
        ]
      },
      "properties": {
        "icao24": "a733e6",
        "callsign": "AAL2429 ",
        "origin_country": "United States"
      }
    },
    {
      "type": "Feature",
      "geometry": {
        "type": "Point",
        "coordinates": [
          -88.5753,
          39.3294
        ]
      },
      "properties": {
        "icao24": "a54f73",
        "callsign": "N441MM  ",
        "origin_country": "United States"
      }
    },
    {
      "type": "Feature",
      "geometry": {
        "type": "Point",
        "coordinates": [
          -87.1729,
          40.5307
        ]
      },
      "properties": {
        "icao24": "a2eea2",
        "callsign": "N2884L  ",
        "origin_country": "United States"
      }
    },
    {
      "type": "Feature",
      "geometry": {
        "type": "Point",
        "coordinates": [
          -90.3168,
          38.3511
        ]
      },
      "properties": {
        "icao24": "a5080c",
        "callsign": "BKN23   ",
        "origin_country": "United States"
      }
    },
    {
      "type": "Feature",
      "geometry": {
        "type": "Point",
        "coordinates": [
          -86.3755,
          39.6634
        ]
      },
      "properties": {
        "icao24": "a52a7e",
        "callsign": "N4319X  ",
        "origin_country": "United States"
      }
    },
    {
      "type": "Feature",
      "geometry": {
        "type": "Point",
        "coordinates": [
          -90.6867,
          38.0216
        ]
      },
      "properties": {
        "icao24": "acdbec",
        "callsign": "ASA506  ",
        "origin_country": "United States"
      }
    },
    {
      "type": "Feature",
      "geometry": {
        "type": "Point",
        "coordinates": [
          -86.4763,
          40.802
        ]
      },
      "properties": {
        "icao24": "ab34ea",
        "callsign": "DAL2738 ",
        "origin_country": "United States"
      }
    },
    {
      "type": "Feature",
      "geometry": {
        "type": "Point",
        "coordinates": [
          -90.3578,
          38.7421
        ]
      },
      "properties": {
        "icao24": "aa1635",
        "callsign": "RPA3717 ",
        "origin_country": "United States"
      }
    },
    {
      "type": "Feature",
      "geometry": {
        "type": "Point",
        "coordinates": [
          -86.5195,
          39.7189
        ]
      },
      "properties": {
        "icao24": "a29d37",
        "callsign": "FDX3745 ",
        "origin_country": "United States"
      }
    },
    {
      "type": "Feature",
      "geometry": {
        "type": "Point",
        "coordinates": [
          -90.4091,
          38.6323
        ]
      },
      "properties": {
        "icao24": "aca594",
        "callsign": "AAL1363 ",
        "origin_country": "United States"
      }
    },
    {
      "type": "Feature",
      "geometry": {
        "type": "Point",
        "coordinates": [
          -89.5241,
          39.0672
        ]
      },
      "properties": {
        "icao24": "ac429b",
        "callsign": "SWA3066 ",
        "origin_country": "United States"
      }
    },
    {
      "type": "Feature",
      "geometry": {
        "type": "Point",
        "coordinates": [
          -86.416,
          38.5816
        ]
      },
      "properties": {
        "icao24": "ad8835",
        "callsign": "KOW971  ",
        "origin_country": "United States"
      }
    },
    {
      "type": "Feature",
      "geometry": {
        "type": "Point",
        "coordinates": [
          -90.1382,
          38.564
        ]
      },
      "properties": {
        "icao24": "a864be",
        "callsign": "N64VA   ",
        "origin_country": "United States"
      }
    },
    {
      "type": "Feature",
      "geometry": {
        "type": "Point",
        "coordinates": [
          -87.4365,
          40.8398
        ]
      },
      "properties": {
        "icao24": "a4f7cb",
        "callsign": "RPA4737 ",
        "origin_country": "United States"
      }
    },
    {
      "type": "Feature",
      "geometry": {
        "type": "Point",
        "coordinates": [
          -88.1443,
          39.2383
        ]
      },
      "properties": {
        "icao24": "a1dfe4",
        "callsign": "N22NR   ",
        "origin_country": "United States"
      }
    },
    {
      "type": "Feature",
      "geometry": {
        "type": "Point",
        "coordinates": [
          -90.6229,
          40.3709
        ]
      },
      "properties": {
        "icao24": "a12338",
        "callsign": "",
        "origin_country": "United States"
      }
    },
    {
      "type": "Feature",
      "geometry": {
        "type": "Point",
        "coordinates": [
          -90.7813,
          38.7233
        ]
      },
      "properties": {
        "icao24": "ad62fb",
        "callsign": "N9615Y  ",
        "origin_country": "United States"
      }
    },
    {
      "type": "Feature",
      "geometry": {
        "type": "Point",
        "coordinates": [
          -89.2119,
          40.7056
        ]
      },
      "properties": {
        "icao24": "a31ff4",
        "callsign": "N300GM  ",
        "origin_country": "United States"
      }
    },
    {
      "type": "Feature",
      "geometry": {
        "type": "Point",
        "coordinates": [
          -86.6688,
          39.8201
        ]
      },
      "properties": {
        "icao24": "a05e02",
        "callsign": "UAL2274 ",
        "origin_country": "United States"
      }
    },
    {
      "type": "Feature",
      "geometry": {
        "type": "Point",
        "coordinates": [
          -88.8401,
          37.2111
        ]
      },
      "properties": {
        "icao24": "a74679",
        "callsign": "AAL2664 ",
        "origin_country": "United States"
      }
    },
    {
      "type": "Feature",
      "geometry": {
        "type": "Point",
        "coordinates": [
          -90.1394,
          38.641
        ]
      },
      "properties": {
        "icao24": "a3fb11",
        "callsign": "N35595  ",
        "origin_country": "United States"
      }
    },
    {
      "type": "Feature",
      "geometry": {
        "type": "Point",
        "coordinates": [
          -90.3257,
          39.6188
        ]
      },
      "properties": {
        "icao24": "ab48e8",
        "callsign": "UAL2160 ",
        "origin_country": "United States"
      }
    },
    {
      "type": "Feature",
      "geometry": {
        "type": "Point",
        "coordinates": [
          -87.0358,
          40.1316
        ]
      },
      "properties": {
        "icao24": "a362a9",
        "callsign": "",
        "origin_country": "United States"
      }
    },
    {
      "type": "Feature",
      "geometry": {
        "type": "Point",
        "coordinates": [
          -86.7891,
          40.6143
        ]
      },
      "properties": {
        "icao24": "a758c4",
        "callsign": "N5724J  ",
        "origin_country": "United States"
      }
    },
    {
      "type": "Feature",
      "geometry": {
        "type": "Point",
        "coordinates": [
          -86.9709,
          40.5002
        ]
      },
      "properties": {
        "icao24": "a6be11",
        "callsign": "N5331D  ",
        "origin_country": "United States"
      }
    },
    {
      "type": "Feature",
      "geometry": {
        "type": "Point",
        "coordinates": [
          -90.1307,
          38.6572
        ]
      },
      "properties": {
        "icao24": "ac3064",
        "callsign": "N88497  ",
        "origin_country": "United States"
      }
    },
    {
      "type": "Feature",
      "geometry": {
        "type": "Point",
        "coordinates": [
          -87.4203,
          37.695
        ]
      },
      "properties": {
        "icao24": "a34e6a",
        "callsign": "ENY3629 ",
        "origin_country": "United States"
      }
    },
    {
      "type": "Feature",
      "geometry": {
        "type": "Point",
        "coordinates": [
          -87.6468,
          40.2817
        ]
      },
      "properties": {
        "icao24": "aaa6dd",
        "callsign": "AAL240P ",
        "origin_country": "United States"
      }
    },
    {
      "type": "Feature",
      "geometry": {
        "type": "Point",
        "coordinates": [
          -90.2161,
          38.3925
        ]
      },
      "properties": {
        "icao24": "a39107",
        "callsign": "BKN29   ",
        "origin_country": "United States"
      }
    },
    {
      "type": "Feature",
      "geometry": {
        "type": "Point",
        "coordinates": [
          -86.8126,
          38.0091
        ]
      },
      "properties": {
        "icao24": "ac2dea",
        "callsign": "AAL2813 ",
        "origin_country": "United States"
      }
    },
    {
      "type": "Feature",
      "geometry": {
        "type": "Point",
        "coordinates": [
          -90.4329,
          38.9983
        ]
      },
      "properties": {
        "icao24": "a8941e",
        "callsign": "65191   ",
        "origin_country": "United States"
      }
    },
    {
      "type": "Feature",
      "geometry": {
        "type": "Point",
        "coordinates": [
          -89.3491,
          40.9384
        ]
      },
      "properties": {
        "icao24": "a5349b",
        "callsign": "N4342C  ",
        "origin_country": "United States"
      }
    },
    {
      "type": "Feature",
      "geometry": {
        "type": "Point",
        "coordinates": [
          -86.0267,
          39.9389
        ]
      },
      "properties": {
        "icao24": "a4280b",
        "callsign": "N367TW  ",
        "origin_country": "United States"
      }
    },
    {
      "type": "Feature",
      "geometry": {
        "type": "Point",
        "coordinates": [
          -90.1599,
          38.8872
        ]
      },
      "properties": {
        "icao24": "a45ba2",
        "callsign": "DAL2400 ",
        "origin_country": "United States"
      }
    },
    {
      "type": "Feature",
      "geometry": {
        "type": "Point",
        "coordinates": [
          -89.8755,
          40.2358
        ]
      },
      "properties": {
        "icao24": "a83f63",
        "callsign": "SKW5780 ",
        "origin_country": "United States"
      }
    },
    {
      "type": "Feature",
      "geometry": {
        "type": "Point",
        "coordinates": [
          -90.3121,
          38.8391
        ]
      },
      "properties": {
        "icao24": "abc7a3",
        "callsign": "SWA1015 ",
        "origin_country": "United States"
      }
    },
    {
      "type": "Feature",
      "geometry": {
        "type": "Point",
        "coordinates": [
          -90.6451,
          39.0891
        ]
      },
      "properties": {
        "icao24": "ad4eb5",
        "callsign": "AAL1079 ",
        "origin_country": "United States"
      }
    },
    {
      "type": "Feature",
      "geometry": {
        "type": "Point",
        "coordinates": [
          -89.3868,
          38.9964
        ]
      },
      "properties": {
        "icao24": "aba229",
        "callsign": "CBN849K ",
        "origin_country": "United States"
      }
    },
    {
      "type": "Feature",
      "geometry": {
        "type": "Point",
        "coordinates": [
          -88.2648,
          38.4429
        ]
      },
      "properties": {
        "icao24": "a057cc",
        "callsign": "DAL2392 ",
        "origin_country": "United States"
      }
    },
    {
      "type": "Feature",
      "geometry": {
        "type": "Point",
        "coordinates": [
          -88.4217,
          40.0984
        ]
      },
      "properties": {
        "icao24": "a45bdd",
        "callsign": "LXJ380  ",
        "origin_country": "United States"
      }
    },
    {
      "type": "Feature",
      "geometry": {
        "type": "Point",
        "coordinates": [
          -88.914,
          40.4821
        ]
      },
      "properties": {
        "icao24": "a34c68",
        "callsign": "ENY3364 ",
        "origin_country": "United States"
      }
    },
    {
      "type": "Feature",
      "geometry": {
        "type": "Point",
        "coordinates": [
          -90.6601,
          38.6577
        ]
      },
      "properties": {
        "icao24": "ac9598",
        "callsign": "N91PA   ",
        "origin_country": "United States"
      }
    },
    {
      "type": "Feature",
      "geometry": {
        "type": "Point",
        "coordinates": [
          -89.3699,
          37.5774
        ]
      },
      "properties": {
        "icao24": "aa41c4",
        "callsign": "ABX036  ",
        "origin_country": "United States"
      }
    },
    {
      "type": "Feature",
      "geometry": {
        "type": "Point",
        "coordinates": [
          -90.6819,
          38.6619
        ]
      },
      "properties": {
        "icao24": "a9bf2b",
        "callsign": "N727SP  ",
        "origin_country": "United States"
      }
    },
    {
      "type": "Feature",
      "geometry": {
        "type": "Point",
        "coordinates": [
          -87.7653,
          38.8427
        ]
      },
      "properties": {
        "icao24": "a0feb4",
        "callsign": "FFL696  ",
        "origin_country": "United States"
      }
    },
    {
      "type": "Feature",
      "geometry": {
        "type": "Point",
        "coordinates": [
          -88.9249,
          40.0403
        ]
      },
      "properties": {
        "icao24": "aa6842",
        "callsign": "N77SD   ",
        "origin_country": "United States"
      }
    },
    {
      "type": "Feature",
      "geometry": {
        "type": "Point",
        "coordinates": [
          -86.205,
          40.6288
        ]
      },
      "properties": {
        "icao24": "a0b88d",
        "callsign": "UAL2481 ",
        "origin_country": "United States"
      }
    },
    {
      "type": "Feature",
      "geometry": {
        "type": "Point",
        "coordinates": [
          -86.342,
          39.9857
        ]
      },
      "properties": {
        "icao24": "a16273",
        "callsign": "DAL771  ",
        "origin_country": "United States"
      }
    },
    {
      "type": "Feature",
      "geometry": {
        "type": "Point",
        "coordinates": [
          -90.3357,
          39.7302
        ]
      },
      "properties": {
        "icao24": "a0b7fe",
        "callsign": "UAL2120 ",
        "origin_country": "United States"
      }
    },
    {
      "type": "Feature",
      "geometry": {
        "type": "Point",
        "coordinates": [
          -88.6314,
          37.2611
        ]
      },
      "properties": {
        "icao24": "a5dd1c",
        "callsign": "SWA518  ",
        "origin_country": "United States"
      }
    },
    {
      "type": "Feature",
      "geometry": {
        "type": "Point",
        "coordinates": [
          -86.3252,
          39.703
        ]
      },
      "properties": {
        "icao24": "ad4cf2",
        "callsign": "SWA263  ",
        "origin_country": "United States"
      }
    },
    {
      "type": "Feature",
      "geometry": {
        "type": "Point",
        "coordinates": [
          -90.2489,
          38.4355
        ]
      },
      "properties": {
        "icao24": "aaa66e",
        "callsign": "N7857H  ",
        "origin_country": "United States"
      }
    },
    {
      "type": "Feature",
      "geometry": {
        "type": "Point",
        "coordinates": [
          -86.4792,
          39.5309
        ]
      },
      "properties": {
        "icao24": "a09e47",
        "callsign": "SKW750W ",
        "origin_country": "United States"
      }
    },
    {
      "type": "Feature",
      "geometry": {
        "type": "Point",
        "coordinates": [
          -90.6933,
          39.8949
        ]
      },
      "properties": {
        "icao24": "a2b0ed",
        "callsign": "UAL377  ",
        "origin_country": "United States"
      }
    },
    {
      "type": "Feature",
      "geometry": {
        "type": "Point",
        "coordinates": [
          -89.9623,
          37.9395
        ]
      },
      "properties": {
        "icao24": "a2c56d",
        "callsign": "ENY3954 ",
        "origin_country": "United States"
      }
    },
    {
      "type": "Feature",
      "geometry": {
        "type": "Point",
        "coordinates": [
          -86.0259,
          37.5048
        ]
      },
      "properties": {
        "icao24": "ade548",
        "callsign": "DAL3078 ",
        "origin_country": "United States"
      }
    },
    {
      "type": "Feature",
      "geometry": {
        "type": "Point",
        "coordinates": [
          -86.0276,
          39.9182
        ]
      },
      "properties": {
        "icao24": "ad9569",
        "callsign": "N9744D  ",
        "origin_country": "United States"
      }
    },
    {
      "type": "Feature",
      "geometry": {
        "type": "Point",
        "coordinates": [
          -90.4489,
          38.9324
        ]
      },
      "properties": {
        "icao24": "a8c23f",
        "callsign": "N66337  ",
        "origin_country": "United States"
      }
    },
    {
      "type": "Feature",
      "geometry": {
        "type": "Point",
        "coordinates": [
          -90.976,
          38.6779
        ]
      },
      "properties": {
        "icao24": "a69fd7",
        "callsign": "GJS4182 ",
        "origin_country": "United States"
      }
    },
    {
      "type": "Feature",
      "geometry": {
        "type": "Point",
        "coordinates": [
          -87.4457,
          40.8244
        ]
      },
      "properties": {
        "icao24": "ab9e5a",
        "callsign": "EJM848  ",
        "origin_country": "United States"
      }
    },
    {
      "type": "Feature",
      "geometry": {
        "type": "Point",
        "coordinates": [
          -88.2867,
          40.0482
        ]
      },
      "properties": {
        "icao24": "a31b4b",
        "callsign": "N3GW    ",
        "origin_country": "United States"
      }
    },
    {
      "type": "Feature",
      "geometry": {
        "type": "Point",
        "coordinates": [
          -87.0327,
          39.8274
        ]
      },
      "properties": {
        "icao24": "a8d284",
        "callsign": "LXJ668  ",
        "origin_country": "United States"
      }
    },
    {
      "type": "Feature",
      "geometry": {
        "type": "Point",
        "coordinates": [
          -90.2939,
          39.0712
        ]
      },
      "properties": {
        "icao24": "a15331",
        "callsign": "N1849X  ",
        "origin_country": "United States"
      }
    },
    {
      "type": "Feature",
      "geometry": {
        "type": "Point",
        "coordinates": [
          -88.2404,
          40.8177
        ]
      },
      "properties": {
        "icao24": "a64342",
        "callsign": "VJA502  ",
        "origin_country": "United States"
      }
    },
    {
      "type": "Feature",
      "geometry": {
        "type": "Point",
        "coordinates": [
          -87.4782,
          40.4049
        ]
      },
      "properties": {
        "icao24": "a7d979",
        "callsign": "N6047S  ",
        "origin_country": "United States"
      }
    },
    {
      "type": "Feature",
      "geometry": {
        "type": "Point",
        "coordinates": [
          -90.8142,
          39.9138
        ]
      },
      "properties": {
        "icao24": "acc350",
        "callsign": "EJA921  ",
        "origin_country": "United States"
      }
    },
    {
      "type": "Feature",
      "geometry": {
        "type": "Point",
        "coordinates": [
          -90.5587,
          38.7932
        ]
      },
      "properties": {
        "icao24": "ad2c4f",
        "callsign": "EJA948  ",
        "origin_country": "United States"
      }
    },
    {
      "type": "Feature",
      "geometry": {
        "type": "Point",
        "coordinates": [
          -90.3673,
          38.7452
        ]
      },
      "properties": {
        "icao24": "ace9ba",
        "callsign": "DAL2700 ",
        "origin_country": "United States"
      }
    },
    {
      "type": "Feature",
      "geometry": {
        "type": "Point",
        "coordinates": [
          -86.4756,
          40.5557
        ]
      },
      "properties": {
        "icao24": "a2b156",
        "callsign": "UAL2055 ",
        "origin_country": "United States"
      }
    },
    {
      "type": "Feature",
      "geometry": {
        "type": "Point",
        "coordinates": [
          -86.9747,
          40.4909
        ]
      },
      "properties": {
        "icao24": "a549d6",
        "callsign": "N44SB   ",
        "origin_country": "United States"
      }
    },
    {
      "type": "Feature",
      "geometry": {
        "type": "Point",
        "coordinates": [
          -88.5664,
          38.135
        ]
      },
      "properties": {
        "icao24": "a08f94",
        "callsign": "UPS2954 ",
        "origin_country": "United States"
      }
    },
    {
      "type": "Feature",
      "geometry": {
        "type": "Point",
        "coordinates": [
          -89.63,
          37.0972
        ]
      },
      "properties": {
        "icao24": "ac4d18",
        "callsign": "N892DL  ",
        "origin_country": "United States"
      }
    },
    {
      "type": "Feature",
      "geometry": {
        "type": "Point",
        "coordinates": [
          -86.2329,
          39.8038
        ]
      },
      "properties": {
        "icao24": "abe3e6",
        "callsign": "SWA994  ",
        "origin_country": "United States"
      }
    },
    {
      "type": "Feature",
      "geometry": {
        "type": "Point",
        "coordinates": [
          -90.7232,
          39.4632
        ]
      },
      "properties": {
        "icao24": "a69869",
        "callsign": "GJS4421 ",
        "origin_country": "United States"
      }
    },
    {
      "type": "Feature",
      "geometry": {
        "type": "Point",
        "coordinates": [
          -86.102,
          39.6355
        ]
      },
      "properties": {
        "icao24": "a6c277",
        "callsign": "N5346D  ",
        "origin_country": "United States"
      }
    },
    {
      "type": "Feature",
      "geometry": {
        "type": "Point",
        "coordinates": [
          -90.4745,
          40.8674
        ]
      },
      "properties": {
        "icao24": "a5b55f",
        "callsign": "UAL1989 ",
        "origin_country": "United States"
      }
    },
    {
      "type": "Feature",
      "geometry": {
        "type": "Point",
        "coordinates": [
          -89.2453,
          40.4644
        ]
      },
      "properties": {
        "icao24": "a23a25",
        "callsign": "CXK667  ",
        "origin_country": "United States"
      }
    },
    {
      "type": "Feature",
      "geometry": {
        "type": "Point",
        "coordinates": [
          -89.2954,
          40.1106
        ]
      },
      "properties": {
        "icao24": "a00d80",
        "callsign": "N102Q   ",
        "origin_country": "United States"
      }
    },
    {
      "type": "Feature",
      "geometry": {
        "type": "Point",
        "coordinates": [
          -88.9229,
          38.4494
        ]
      },
      "properties": {
        "icao24": "a68655",
        "callsign": "N5198G  ",
        "origin_country": "United States"
      }
    },
    {
      "type": "Feature",
      "geometry": {
        "type": "Point",
        "coordinates": [
          -88.1049,
          40.8746
        ]
      },
      "properties": {
        "icao24": "a1d368",
        "callsign": "JBU1448 ",
        "origin_country": "United States"
      }
    },
    {
      "type": "Feature",
      "geometry": {
        "type": "Point",
        "coordinates": [
          -86.1729,
          39.7832
        ]
      },
      "properties": {
        "icao24": "a1709e",
        "callsign": "N192LL  ",
        "origin_country": "United States"
      }
    },
    {
      "type": "Feature",
      "geometry": {
        "type": "Point",
        "coordinates": [
          -90.2366,
          39.1165
        ]
      },
      "properties": {
        "icao24": "abd010",
        "callsign": "AAL438  ",
        "origin_country": "United States"
      }
    },
    {
      "type": "Feature",
      "geometry": {
        "type": "Point",
        "coordinates": [
          -89.1496,
          37.3267
        ]
      },
      "properties": {
        "icao24": "a99ed2",
        "callsign": "JIA5517 ",
        "origin_country": "United States"
      }
    },
    {
      "type": "Feature",
      "geometry": {
        "type": "Point",
        "coordinates": [
          -90.2348,
          38.6766
        ]
      },
      "properties": {
        "icao24": "aa733b",
        "callsign": "SWA3394 ",
        "origin_country": "United States"
      }
    },
    {
      "type": "Feature",
      "geometry": {
        "type": "Point",
        "coordinates": [
          -86.4828,
          39.6104
        ]
      },
      "properties": {
        "icao24": "a25d11",
        "callsign": "N251VA  ",
        "origin_country": "United States"
      }
    },
    {
      "type": "Feature",
      "geometry": {
        "type": "Point",
        "coordinates": [
          -86.4563,
          39.9417
        ]
      },
      "properties": {
        "icao24": "a347f9",
        "callsign": "N310MW  ",
        "origin_country": "United States"
      }
    },
    {
      "type": "Feature",
      "geometry": {
        "type": "Point",
        "coordinates": [
          -86.4883,
          37.4548
        ]
      },
      "properties": {
        "icao24": "a321e2",
        "callsign": "N3001W  ",
        "origin_country": "United States"
      }
    },
    {
      "type": "Feature",
      "geometry": {
        "type": "Point",
        "coordinates": [
          -86.1413,
          38.3756
        ]
      },
      "properties": {
        "icao24": "c02876",
        "callsign": "CJT919  ",
        "origin_country": "Canada"
      }
    },
    {
      "type": "Feature",
      "geometry": {
        "type": "Point",
        "coordinates": [
          -86.5522,
          39.9986
        ]
      },
      "properties": {
        "icao24": "a97a5c",
        "callsign": "N71GT   ",
        "origin_country": "United States"
      }
    },
    {
      "type": "Feature",
      "geometry": {
        "type": "Point",
        "coordinates": [
          -90.9288,
          40.934
        ]
      },
      "properties": {
        "icao24": "a9595a",
        "callsign": "N701MB  ",
        "origin_country": "United States"
      }
    },
    {
      "type": "Feature",
      "geometry": {
        "type": "Point",
        "coordinates": [
          -86.0379,
          38.5397
        ]
      },
      "properties": {
        "icao24": "a25e33",
        "callsign": "CXK152  ",
        "origin_country": "United States"
      }
    },
    {
      "type": "Feature",
      "geometry": {
        "type": "Point",
        "coordinates": [
          -89.1926,
          39.6388
        ]
      },
      "properties": {
        "icao24": "ad49a1",
        "callsign": "N9550Q  ",
        "origin_country": "United States"
      }
    },
    {
      "type": "Feature",
      "geometry": {
        "type": "Point",
        "coordinates": [
          -90.0096,
          38.4282
        ]
      },
      "properties": {
        "icao24": "a37e74",
        "callsign": "BKN24   ",
        "origin_country": "United States"
      }
    },
    {
      "type": "Feature",
      "geometry": {
        "type": "Point",
        "coordinates": [
          -86.6307,
          39.6938
        ]
      },
      "properties": {
        "icao24": "ab8112",
        "callsign": "AAL1101 ",
        "origin_country": "United States"
      }
    },
    {
      "type": "Feature",
      "geometry": {
        "type": "Point",
        "coordinates": [
          -87.6046,
          37.3117
        ]
      },
      "properties": {
        "icao24": "a37da1",
        "callsign": "ENY3927 ",
        "origin_country": "United States"
      }
    },
    {
      "type": "Feature",
      "geometry": {
        "type": "Point",
        "coordinates": [
          -87.8991,
          40.9748
        ]
      },
      "properties": {
        "icao24": "a55130",
        "callsign": "N44132  ",
        "origin_country": "United States"
      }
    },
    {
      "type": "Feature",
      "geometry": {
        "type": "Point",
        "coordinates": [
          -86.9136,
          40.3962
        ]
      },
      "properties": {
        "icao24": "a25df5",
        "callsign": "CXK440  ",
        "origin_country": "United States"
      }
    },
    {
      "type": "Feature",
      "geometry": {
        "type": "Point",
        "coordinates": [
          -86.2264,
          39.6976
        ]
      },
      "properties": {
        "icao24": "adbb02",
        "callsign": "N984LH  ",
        "origin_country": "United States"
      }
    },
    {
      "type": "Feature",
      "geometry": {
        "type": "Point",
        "coordinates": [
          -89.3722,
          40.2642
        ]
      },
      "properties": {
        "icao24": "aac8a4",
        "callsign": "UAL2328 ",
        "origin_country": "United States"
      }
    },
    {
      "type": "Feature",
      "geometry": {
        "type": "Point",
        "coordinates": [
          -90.5626,
          39.8298
        ]
      },
      "properties": {
        "icao24": "a567d3",
        "callsign": "N4476L  ",
        "origin_country": "United States"
      }
    },
    {
      "type": "Feature",
      "geometry": {
        "type": "Point",
        "coordinates": [
          -90.2709,
          38.4887
        ]
      },
      "properties": {
        "icao24": "a58a67",
        "callsign": "SWA334  ",
        "origin_country": "United States"
      }
    },
    {
      "type": "Feature",
      "geometry": {
        "type": "Point",
        "coordinates": [
          -90.6025,
          38.8432
        ]
      },
      "properties": {
        "icao24": "abd627",
        "callsign": "SWA1181 ",
        "origin_country": "United States"
      }
    },
    {
      "type": "Feature",
      "geometry": {
        "type": "Point",
        "coordinates": [
          -90.4045,
          38.7573
        ]
      },
      "properties": {
        "icao24": "abe7e3",
        "callsign": "SWA3955 ",
        "origin_country": "United States"
      }
    },
    {
      "type": "Feature",
      "geometry": {
        "type": "Point",
        "coordinates": [
          -86.311,
          39.6951
        ]
      },
      "properties": {
        "icao24": "ab0a56",
        "callsign": "LTA810  ",
        "origin_country": "United States"
      }
    },
    {
      "type": "Feature",
      "geometry": {
        "type": "Point",
        "coordinates": [
          -89.7459,
          40.6918
        ]
      },
      "properties": {
        "icao24": "a7e630",
        "callsign": "JIA5494 ",
        "origin_country": "United States"
      }
    },
    {
      "type": "Feature",
      "geometry": {
        "type": "Point",
        "coordinates": [
          -90.3887,
          38.5414
        ]
      },
      "properties": {
        "icao24": "a1c470",
        "callsign": "N2128R  ",
        "origin_country": "United States"
      }
    },
    {
      "type": "Feature",
      "geometry": {
        "type": "Point",
        "coordinates": [
          -87.837,
          39.7803
        ]
      },
      "properties": {
        "icao24": "a9cca5",
        "callsign": "SKW4940 ",
        "origin_country": "United States"
      }
    },
    {
      "type": "Feature",
      "geometry": {
        "type": "Point",
        "coordinates": [
          -90.4812,
          38.8084
        ]
      },
      "properties": {
        "icao24": "a445cd",
        "callsign": "UAL2000 ",
        "origin_country": "United States"
      }
    },
    {
      "type": "Feature",
      "geometry": {
        "type": "Point",
        "coordinates": [
          -88.24,
          37.8636
        ]
      },
      "properties": {
        "icao24": "aa76a8",
        "callsign": "SWA1071 ",
        "origin_country": "United States"
      }
    },
    {
      "type": "Feature",
      "geometry": {
        "type": "Point",
        "coordinates": [
          -88.8405,
          39.3353
        ]
      },
      "properties": {
        "icao24": "a35ab8",
        "callsign": "EDV4958 ",
        "origin_country": "United States"
      }
    },
    {
      "type": "Feature",
      "geometry": {
        "type": "Point",
        "coordinates": [
          -89.0153,
          37.4241
        ]
      },
      "properties": {
        "icao24": "a36de5",
        "callsign": "N32VU   ",
        "origin_country": "United States"
      }
    },
    {
      "type": "Feature",
      "geometry": {
        "type": "Point",
        "coordinates": [
          -90.3341,
          37.5317
        ]
      },
      "properties": {
        "icao24": "a32753",
        "callsign": "LXJ302  ",
        "origin_country": "United States"
      }
    },
    {
      "type": "Feature",
      "geometry": {
        "type": "Point",
        "coordinates": [
          -90.4057,
          38.9953
        ]
      },
      "properties": {
        "icao24": "a4478d",
        "callsign": "DAL2462 ",
        "origin_country": "United States"
      }
    },
    {
      "type": "Feature",
      "geometry": {
        "type": "Point",
        "coordinates": [
          -86.1526,
          39.4842
        ]
      },
      "properties": {
        "icao24": "a35ae4",
        "callsign": "AAL1431 ",
        "origin_country": "United States"
      }
    },
    {
      "type": "Feature",
      "geometry": {
        "type": "Point",
        "coordinates": [
          -86.1794,
          38.2325
        ]
      },
      "properties": {
        "icao24": "adbe2c",
        "callsign": "AMF7251 ",
        "origin_country": "United States"
      }
    },
    {
      "type": "Feature",
      "geometry": {
        "type": "Point",
        "coordinates": [
          -90.3167,
          38.3683
        ]
      },
      "properties": {
        "icao24": "a1f9fa",
        "callsign": "N2262S  ",
        "origin_country": "United States"
      }
    },
    {
      "type": "Feature",
      "geometry": {
        "type": "Point",
        "coordinates": [
          -87.5226,
          39.3608
        ]
      },
      "properties": {
        "icao24": "a339e6",
        "callsign": "LXJ307  ",
        "origin_country": "United States"
      }
    },
    {
      "type": "Feature",
      "geometry": {
        "type": "Point",
        "coordinates": [
          -90.9422,
          37.3899
        ]
      },
      "properties": {
        "icao24": "a12f52",
        "callsign": "UAL1301 ",
        "origin_country": "United States"
      }
    },
    {
      "type": "Feature",
      "geometry": {
        "type": "Point",
        "coordinates": [
          -89.8952,
          38.3985
        ]
      },
      "properties": {
        "icao24": "a81785",
        "callsign": "BKN20   ",
        "origin_country": "United States"
      }
    },
    {
      "type": "Feature",
      "geometry": {
        "type": "Point",
        "coordinates": [
          -90.3606,
          38.749
        ]
      },
      "properties": {
        "icao24": "abe7c5",
        "callsign": "SWA1675 ",
        "origin_country": "United States"
      }
    },
    {
      "type": "Feature",
      "geometry": {
        "type": "Point",
        "coordinates": [
          -86.8423,
          38.1247
        ]
      },
      "properties": {
        "icao24": "abd536",
        "callsign": "SWA4059 ",
        "origin_country": "United States"
      }
    },
    {
      "type": "Feature",
      "geometry": {
        "type": "Point",
        "coordinates": [
          -87.3838,
          39.7048
        ]
      },
      "properties": {
        "icao24": "abe872",
        "callsign": "SWA1483 ",
        "origin_country": "United States"
      }
    },
    {
      "type": "Feature",
      "geometry": {
        "type": "Point",
        "coordinates": [
          -86.2018,
          39.6317
        ]
      },
      "properties": {
        "icao24": "ac3bff",
        "callsign": "N888EP  ",
        "origin_country": "United States"
      }
    },
    {
      "type": "Feature",
      "geometry": {
        "type": "Point",
        "coordinates": [
          -87.3412,
          39.4275
        ]
      },
      "properties": {
        "icao24": "a8f0e1",
        "callsign": "N67512  ",
        "origin_country": "United States"
      }
    },
    {
      "type": "Feature",
      "geometry": {
        "type": "Point",
        "coordinates": [
          -88.0386,
          39.5408
        ]
      },
      "properties": {
        "icao24": "a780ad",
        "callsign": "ASA2622 ",
        "origin_country": "United States"
      }
    },
    {
      "type": "Feature",
      "geometry": {
        "type": "Point",
        "coordinates": [
          -88.903,
          40.4498
        ]
      },
      "properties": {
        "icao24": "a78246",
        "callsign": "JIA5291 ",
        "origin_country": "United States"
      }
    }
  ],
  "tier": "open"
}