{
  "type": "FeatureCollection",
  "features": [
    {
      "type": "Feature",
      "geometry": {
        "type": "Point",
        "coordinates": [
          -98.712896,
          26.45826
        ]
      },
      "properties": {
        "id": "EONET_24483",
        "title": "Wildfire Breezy, Starr, Texas",
        "categories": "Wildfires"
      }
    },
    {
      "type": "Feature",
      "geometry": {
        "type": "Point",
        "coordinates": [
          -120.025216,
          39.394425
        ]
      },
      "properties": {
        "id": "EONET_24488",
        "title": "Wildfire FLORISTON, Nevada, California",
        "categories": "Wildfires"
      }
    },
    {
      "type": "Feature",
      "geometry": {
        "type": "Point",
        "coordinates": [
          141.7,
          25.4
        ]
      },
      "properties": {
        "id": "EONET_24317",
        "title": "Typhoon Dujuan",
        "categories": "Severe Storms"
      }
    },
    {
      "type": "Feature",
      "geometry": {
        "type": "Point",
        "coordinates": [
          -93.164867,
          30.957333
        ]
      },
      "properties": {
        "id": "EONET_24499",
        "title": "Prescribed Fire RX CALV BU 104-108, Vernon, Louisiana",
        "categories": "Wildfires"
      }
    },
    {
      "type": "Feature",
      "geometry": {
        "type": "Point",
        "coordinates": [
          -100.3453084,
          29.9328492
        ]
      },
      "properties": {
        "id": "EONET_24482",
        "title": "Wildfire Clark, Edwards, Texas",
        "categories": "Wildfires"
      }
    },
    {
      "type": "Feature",
      "geometry": {
        "type": "Point",
        "coordinates": [
          -98.9880556,
          35.1580556
        ]
      },
      "properties": {
        "id": "EONET_24476",
        "title": "Wildfire Calvary Creek, Washita, Oklahoma",
        "categories": "Wildfires"
      }
    },
    {
      "type": "Feature",
      "geometry": {
        "type": "Point",
        "coordinates": [
          -100.7446997,
          30.54096369
        ]
      },
      "properties": {
        "id": "EONET_24481",
        "title": "Wildfire Dry River, Sutton, Texas",
        "categories": "Wildfires"
      }
    },
    {
      "type": "Feature",
      "geometry": {
        "type": "Point",
        "coordinates": [
          -80.7169444,
          27.7427778
        ]
      },
      "properties": {
        "id": "EONET_24478",
        "title": "Wildfire BLUE LAKE, Indian River, Florida",
        "categories": "Wildfires"
      }
    },
    {
      "type": "Feature",
      "geometry": {
        "type": "Point",
        "coordinates": [
          -98.93066189,
          32.42654762
        ]
      },
      "properties": {
        "id": "EONET_24485",
        "title": "Wildfire Lobo, Eastland, Texas",
        "categories": "Wildfires"
      }
    },
    {
      "type": "Feature",
      "geometry": {
        "type": "Point",
        "coordinates": [
          -119.616167,
          37.5662
        ]
      },
      "properties": {
        "id": "EONET_24484",
        "title": "Wildfire DOME, Mariposa, California",
        "categories": "Wildfires"
      }
    },
    {
      "type": "Feature",
      "geometry": {
        "type": "Point",
        "coordinates": [
          -92.5861667,
          33.5743333
        ]
      },
      "properties": {
        "id": "EONET_24502",
        "title": "Wildfire Bunker Fire, Calhoun, Arkansas",
        "categories": "Wildfires"
      }
    },
    {
      "type": "Feature",
      "geometry": {
        "type": "Point",
        "coordinates": [
          -97.653304,
          31.848649
        ]
      },
      "properties": {
        "id": "EONET_24473",
        "title": "Wildfire Hydra, Bosque, Texas",
        "categories": "Wildfires"
      }
    },
    {
      "type": "Feature",
      "geometry": {
        "type": "Point",
        "coordinates": [
          -96.1063889,
          34.4136111
        ]
      },
      "properties": {
        "id": "EONET_24474",
        "title": "Wildfire Atoka Lake, Atoka, Oklahoma",
        "categories": "Wildfires"
      }
    },
    {
      "type": "Feature",
      "geometry": {
        "type": "Point",
        "coordinates": [
          -95.3741667,
          34.2822222
        ]
      },
      "properties": {
        "id": "EONET_24475",
        "title": "Wildfire Tram Trail, Pushmataha, Oklahoma",
        "categories": "Wildfires"
      }
    },
    {
      "type": "Feature",
      "geometry": {
        "type": "Point",
        "coordinates": [
          -92.5862323,
          33.5744871
        ]
      },
      "properties": {
        "id": "EONET_24490",
        "title": "Wildfire Bunker Fire, Calhoun, Arkansas",
        "categories": "Wildfires"
      }
    },
    {
      "type": "Feature",
      "geometry": {
        "type": "Point",
        "coordinates": [
          -99.6561111,
          35.7588889
        ]
      },
      "properties": {
        "id": "EONET_24477",
        "title": "Wildfire Black Kettle, Roger Mills, Oklahoma",
        "categories": "Wildfires"
      }
    },
    {
      "type": "Feature",
      "geometry": {
        "type": "Point",
        "coordinates": [
          -107.6275,
          45.5398
        ]
      },
      "properties": {
        "id": "EONET_24487",
        "title": "Wildfire Davis Coulee, Big Horn, Montana",
        "categories": "Wildfires"
      }
    },
    {
      "type": "Feature",
      "geometry": {
        "type": "Point",
        "coordinates": [
          -98.236762,
          35.322764
        ]
      },
      "properties": {
        "id": "EONET_24486",
        "title": "Wildfire GRACEMONT, Caddo, Oklahoma",
        "categories": "Wildfires"
      }
    },
    {
      "type": "Feature",
      "geometry": {
        "type": "Point",
        "coordinates": [
          -94.158617,
          29.664158
        ]
      },
      "properties": {
        "id": "EONET_24498",
        "title": "Wildfire Star Lake, Jefferson, Texas",
        "categories": "Wildfires"
      }
    },
    {
      "type": "Feature",
      "geometry": {
        "type": "Point",
        "coordinates": [
          -123.002756,
          39.231856
        ]
      },
      "properties": {
        "id": "EONET_24489",
        "title": "Wildfire LUCAS, Lake, California",
        "categories": "Wildfires"
      }
    },
    {
      "type": "Feature",
      "geometry": {
        "type": "Point",
        "coordinates": [
          -123.003217,
          39.233117
        ]
      },
      "properties": {
        "id": "EONET_24510",
        "title": "Wildfire LUCAS, Lake, California",
        "categories": "Wildfires"
      }
    },
    {
      "type": "Feature",
      "geometry": {
        "type": "Point",
        "coordinates": [
          -142.4,
          20.4
        ]
      },
      "properties": {
        "id": "EONET_24184",
        "title": "Cyclone Norbert",
        "categories": "Severe Storms"
      }
    },
    {
      "type": "Feature",
      "geometry": {
        "type": "Point",
        "coordinates": [
          -88.3208333,
          31.3738889
        ]
      },
      "properties": {
        "id": "EONET_24503",
        "title": "Wildfire RAY COAKER, Washington, Alabama",
        "categories": "Wildfires"
      }
    },
    {
      "type": "Feature",
      "geometry": {
        "type": "Point",
        "coordinates": [
          -98.67792,
          34.840579
        ]
      },
      "properties": {
        "id": "EONET_24189",
        "title": "Wildfire MEERS, Comanche, Oklahoma",
        "categories": "Wildfires"
      }
    },
    {
      "type": "Feature",
      "geometry": {
        "type": "Point",
        "coordinates": [
          -98.653084,
          31.060181
        ]
      },
      "properties": {
        "id": "EONET_24185",
        "title": "Wildfire Kurk, San Saba, Texas",
        "categories": "Wildfires"
      }
    },
    {
      "type": "Feature",
      "geometry": {
        "type": "Point",
        "coordinates": [
          -97.5925,
          34.413611
        ]
      },
      "properties": {
        "id": "EONET_24192",
        "title": "Wildfire PINTO, Stephens, Oklahoma",
        "categories": "Wildfires"
      }
    },
    {
      "type": "Feature",
      "geometry": {
        "type": "Point",
        "coordinates": [
          -105.321617,
          41.95365
        ]
      },
      "properties": {
        "id": "EONET_24187",
        "title": "Wildfire Moonshine, Albany, Wyoming",
        "categories": "Wildfires"
      }
    },
    {
      "type": "Feature",
      "geometry": {
        "type": "Point",
        "coordinates": [
          -80.4997222,
          26.3258333
        ]
      },
      "properties": {
        "id": "EONET_24100",
        "title": "Wildfire S7, Broward, Florida",
        "categories": "Wildfires"
      }
    },
    {
      "type": "Feature",
      "geometry": {
        "type": "Point",
        "coordinates": [
          -102.311123,
          43.30421421
        ]
      },
      "properties": {
        "id": "EONET_24096",
        "title": "Wildfire Needles, Oglala Lakota, South Dakota",
        "categories": "Wildfires"
      }
    },
    {
      "type": "Feature",
      "geometry": {
        "type": "Point",
        "coordinates": [
          -104.927967,
          46.586036
        ]
      },
      "properties": {
        "id": "EONET_24095",
        "title": "Incident Complex Rattlesnake Complex, Prairie, Montana",
        "categories": "Wildfires"
      }
    },
    {
      "type": "Feature",
      "geometry": {
        "type": "Point",
        "coordinates": [
          -117.74215,
          41.517567
        ]
      },
      "properties": {
        "id": "EONET_23868",
        "title": "Emergency Stabilization BAER McConnell, Humboldt, Nevada",
        "categories": "Wildfires"
      }
    },
    {
      "type": "Feature",
      "geometry": {
        "type": "Point",
        "coordinates": [
          -104.83045,
          46.65069
        ]
      },
      "properties": {
        "id": "EONET_23869",
        "title": "Wildfire Ayers Pond, Prairie, Montana",
        "categories": "Wildfires"
      }
    },
    {
      "type": "Feature",
      "geometry": {
        "type": "Point",
        "coordinates": [
          -105.185017,
          46.48575
        ]
      },
      "properties": {
        "id": "EONET_23870",
        "title": "Wildfire Snow, Custer, Montana",
        "categories": "Wildfires"
      }
    },
    {
      "type": "Feature",
      "geometry": {
        "type": "Point",
        "coordinates": [
          -103.7858,
          35.5693
        ]
      },
      "properties": {
        "id": "EONET_24098",
        "title": "Wildfire Fowl, Harding, New Mexico",
        "categories": "Wildfires"
      }
    },
    {
      "type": "Feature",
      "geometry": {
        "type": "Point",
        "coordinates": [
          -119.69069,
          45.253405
        ]
      },
      "properties": {
        "id": "EONET_23656",
        "title": "Wildfire Ruggs, Morrow, Oregon",
        "categories": "Wildfires"
      }
    },
    {
      "type": "Feature",
      "geometry": {
        "type": "Point",
        "coordinates": [
          -99.07646449,
          33.05632251
        ]
      },
      "properties": {
        "id": "EONET_23658",
        "title": "Wildfire Harris, Throckmorton, Texas",
        "categories": "Wildfires"
      }
    },
    {
      "type": "Feature",
      "geometry": {
        "type": "Point",
        "coordinates": [
          -98.7205,
          34.6084
        ]
      },
      "properties": {
        "id": "EONET_23685",
        "title": "Wildfire SOUTH RAILROAD, Comanche, Oklahoma",
        "categories": "Wildfires"
      }
    },
    {
      "type": "Feature",
      "geometry": {
        "type": "Point",
        "coordinates": [
          -95.2966667,
          34.4777778
        ]
      },
      "properties": {
        "id": "EONET_23673",
        "title": "Wildfire Alexander Trail Fire, Pushmataha, Oklahoma",
        "categories": "Wildfires"
      }
    },
    {
      "type": "Feature",
      "geometry": {
        "type": "Point",
        "coordinates": [
          -95.2966667,
          34.4777778
        ]
      },
      "properties": {
        "id": "EONET_23871",
        "title": "Wildfire Alexander Trail, Pushmataha, Oklahoma",
        "categories": "Wildfires"
      }
    },
    {
      "type": "Feature",
      "geometry": {
        "type": "Point",
        "coordinates": [
          -104.295,
          35.535
        ]
      },
      "properties": {
        "id": "EONET_23683",
        "title": "Wildfire 4V, San Miguel, New Mexico",
        "categories": "Wildfires"
      }
    },
    {
      "type": "Feature",
      "geometry": {
        "type": "Point",
        "coordinates": [
          -96.1149,
          35.224667
        ]
      },
      "properties": {
        "id": "EONET_23674",
        "title": "Wildfire WRIGHT, Hughes, Oklahoma",
        "categories": "Wildfires"
      }
    },
    {
      "type": "Feature",
      "geometry": {
        "type": "Point",
        "coordinates": [
          -98.7205,
          34.6084
        ]
      },
      "properties": {
        "id": "EONET_23676",
        "title": "Wildfire RAILROAD SOUTH, Comanche, Oklahoma",
        "categories": "Wildfires"
      }
    },
    {
      "type": "Feature",
      "geometry": {
        "type": "Point",
        "coordinates": [
          -100.3149,
          30.18416667
        ]
      },
      "properties": {
        "id": "EONET_23666",
        "title": "Wildfire McKee Draw, Edwards, Texas",
        "categories": "Wildfires"
      }
    },
    {
      "type": "Feature",
      "geometry": {
        "type": "Point",
        "coordinates": [
          -100.1516574,
          30.36872624
        ]
      },
      "properties": {
        "id": "EONET_23664",
        "title": "Wildfire West Fork, Sutton, Texas",
        "categories": "Wildfires"
      }
    },
    {
      "type": "Feature",
      "geometry": {
        "type": "Point",
        "coordinates": [
          -112.77825,
          44.921867
        ]
      },
      "properties": {
        "id": "EONET_23669",
        "title": "Wildfire Roe 2, Beaverhead, Montana",
        "categories": "Wildfires"
      }
    },
    {
      "type": "Feature",
      "geometry": {
        "type": "Point",
        "coordinates": [
          -112.4795,
          41.288667
        ]
      },
      "properties": {
        "id": "EONET_23668",
        "title": "Wildfire Brushy Canyon, Box Elder, Utah",
        "categories": "Wildfires"
      }
    },
    {
      "type": "Feature",
      "geometry": {
        "type": "Point",
        "coordinates": [
          -117.3563,
          41.86665
        ]
      },
      "properties": {
        "id": "EONET_23453",
        "title": "Wildfire Calico, Humboldt, Nevada",
        "categories": "Wildfires"
      }
    },
    {
      "type": "Feature",
      "geometry": {
        "type": "Point",
        "coordinates": [
          -115.920767,
          47.539417
        ]
      },
      "properties": {
        "id": "EONET_23672",
        "title": "Wildfire Dudley, Shoshone, Idaho",
        "categories": "Wildfires"
      }
    },
    {
      "type": "Feature",
      "geometry": {
        "type": "Point",
        "coordinates": [
          -121.4125,
          35.905667
        ]
      },
      "properties": {
        "id": "EONET_23681",
        "title": "Wildfire Plaskett, Monterey, California",
        "categories": "Wildfires"
      }
    },
    {
      "type": "Feature",
      "geometry": {
        "type": "Point",
        "coordinates": [
          -117.74215,
          41.517567
        ]
      },
      "properties": {
        "id": "EONET_23455",
        "title": "Wildfire McConnell, Humboldt, Nevada",
        "categories": "Wildfires"
      }
    },
    {
      "type": "Feature",
      "geometry": {
        "type": "Point",
        "coordinates": [
          -104.4530556,
          36.5230556
        ]
      },
      "properties": {
        "id": "EONET_23466",
        "title": "Wildfire LAUGHLIN, Colfax, New Mexico",
        "categories": "Wildfires"
      }
    },
    {
      "type": "Feature",
      "geometry": {
        "type": "Point",
        "coordinates": [
          -117.442833,
          42.667167
        ]
      },
      "properties": {
        "id": "EONET_23456",
        "title": "Wildfire MUSTANG, Malheur, Oregon",
        "categories": "Wildfires"
      }
    },
    {
      "type": "Feature",
      "geometry": {
        "type": "Point",
        "coordinates": [
          -117.69345,
          39.751733
        ]
      },
      "properties": {
        "id": "EONET_23663",
        "title": "Wildfire Blue Eagle, Churchill, Nevada",
        "categories": "Wildfires"
      }
    },
    {
      "type": "Feature",
      "geometry": {
        "type": "Point",
        "coordinates": [
          -109.649486,
          33.620704
        ]
      },
      "properties": {
        "id": "EONET_23682",
        "title": "Wildfire Paddy Creek, Apache, Arizona",
        "categories": "Wildfires"
      }
    },
    {
      "type": "Feature",
      "geometry": {
        "type": "Point",
        "coordinates": [
          -95.6938889,
          34.4980556
        ]
      },
      "properties": {
        "id": "EONET_23677",
        "title": "Wildfire Buck Creek, Pushmataha, Oklahoma",
        "categories": "Wildfires"
      }
    },
    {
      "type": "Feature",
      "geometry": {
        "type": "Point",
        "coordinates": [
          -115.93761,
          41.82602
        ]
      },
      "properties": {
        "id": "EONET_23462",
        "title": "Wildfire California  Creek, Elko, Nevada",
        "categories": "Wildfires"
      }
    },
    {
      "type": "Feature",
      "geometry": {
        "type": "Point",
        "coordinates": [
          -116.822,
          42.882167
        ]
      },
      "properties": {
        "id": "EONET_23667",
        "title": "Wildfire FLINT, Owyhee, Idaho",
        "categories": "Wildfires"
      }
    },
    {
      "type": "Feature",
      "geometry": {
        "type": "Point",
        "coordinates": [
          -115.036467,
          41.445417
        ]
      },
      "properties": {
        "id": "EONET_23659",
        "title": "Wildfire Forleen, Elko, Nevada",
        "categories": "Wildfires"
      }
    },
    {
      "type": "Feature",
      "geometry": {
        "type": "Point",
        "coordinates": [
          -98.12037,
          31.49444497
        ]
      },
      "properties": {
        "id": "EONET_23671",
        "title": "Wildfire Rio Escondido, Hamilton, Texas",
        "categories": "Wildfires"
      }
    },
    {
      "type": "Feature",
      "geometry": {
        "type": "Point",
        "coordinates": [
          -112.705867,
          40.00455
        ]
      },
      "properties": {
        "id": "EONET_23459",
        "title": "Wildfire Tom Creek, Tooele, Utah",
        "categories": "Wildfires"
      }
    },
    {
      "type": "Feature",
      "geometry": {
        "type": "Point",
        "coordinates": [
          -98.34256986,
          32.75981855
        ]
      },
      "properties": {
        "id": "EONET_23452",
        "title": "Wildfire Ross, Palo Pinto, Texas",
        "categories": "Wildfires"
      }
    },
    {
      "type": "Feature",
      "geometry": {
        "type": "Point",
        "coordinates": [
          -114.930833,
          41.1845
        ]
      },
      "properties": {
        "id": "EONET_23458",
        "title": "Wildfire Oxley, Elko, Nevada",
        "categories": "Wildfires"
      }
    },
    {
      "type": "Feature",
      "geometry": {
        "type": "Point",
        "coordinates": [
          -80.7905556,
          26.4197222
        ]
      },
      "properties": {
        "id": "EONET_23461",
        "title": "Wildfire H2, Palm Beach, Florida",
        "categories": "Wildfires"
      }
    },
    {
      "type": "Feature",
      "geometry": {
        "type": "Point",
        "coordinates": [
          -103.141587,
          36.504679
        ]
      },
      "properties": {
        "id": "EONET_23465",
        "title": "Wildfire Rabbit Ear East, Union, New Mexico",
        "categories": "Wildfires"
      }
    },
    {
      "type": "Feature",
      "geometry": {
        "type": "Point",
        "coordinates": [
          -82.241083,
          30.630467
        ]
      },
      "properties": {
        "id": "EONET_23463",
        "title": "Wildfire Mitchell, Ware, Georgia",
        "categories": "Wildfires"
      }
    },
    {
      "type": "Feature",
      "geometry": {
        "type": "Point",
        "coordinates": [
          -101.217,
          35.4635
        ]
      },
      "properties": {
        "id": "EONET_23209",
        "title": "Wildfire Old Deer, Carson, Texas",
        "categories": "Wildfires"
      }
    },
    {
      "type": "Feature",
      "geometry": {
        "type": "Point",
        "coordinates": [
          -113.924333,
          46.1535
        ]
      },
      "properties": {
        "id": "EONET_23661",
        "title": "Wildfire Nature Grove, Ravalli, Montana",
        "categories": "Wildfires"
      }
    },
    {
      "type": "Feature",
      "geometry": {
        "type": "Point",
        "coordinates": [
          -80.5444444,
          25.9427778
        ]
      },
      "properties": {
        "id": "EONET_23225",
        "title": "Wildfire 22, Miami-Dade, Florida",
        "categories": "Wildfires"
      }
    },
    {
      "type": "Feature",
      "geometry": {
        "type": "Point",
        "coordinates": [
          -116.6247,
          48.870133
        ]
      },
      "properties": {
        "id": "EONET_23665",
        "title": "Wildfire Parker Lake, Boundary, Idaho",
        "categories": "Wildfires"
      }
    },
    {
      "type": "Feature",
      "geometry": {
        "type": "Point",
        "coordinates": [
          -113.10128,
          34.6253
        ]
      },
      "properties": {
        "id": "EONET_23662",
        "title": "Wildfire Campwood, Yavapai, Arizona",
        "categories": "Wildfires"
      }
    },
    {
      "type": "Feature",
      "geometry": {
        "type": "Point",
        "coordinates": [
          -116.660283,
          48.628867
        ]
      },
      "properties": {
        "id": "EONET_23680",
        "title": "Wildfire Silver, Boundary, Idaho",
        "categories": "Wildfires"
      }
    },
    {
      "type": "Feature",
      "geometry": {
        "type": "Point",
        "coordinates": [
          -100.9927167,
          33.8381
        ]
      },
      "properties": {
        "id": "EONET_23215",
        "title": "Wildfire Rustler, Motley, Texas",
        "categories": "Wildfires"
      }
    },
    {
      "type": "Feature",
      "geometry": {
        "type": "Point",
        "coordinates": [
          -121.4353,
          48.652417
        ]
      },
      "properties": {
        "id": "EONET_23454",
        "title": "Wildfire Electric, Whatcom, Washington",
        "categories": "Wildfires"
      }
    },
    {
      "type": "Feature",
      "geometry": {
        "type": "Point",
        "coordinates": [
          -121.052783,
          47.458917
        ]
      },
      "properties": {
        "id": "EONET_23679",
        "title": "Wildfire GOAT, Kittitas, Washington",
        "categories": "Wildfires"
      }
    },
    {
      "type": "Feature",
      "geometry": {
        "type": "Point",
        "coordinates": [
          -113.8483,
          42.961617
        ]
      },
      "properties": {
        "id": "EONET_23219",
        "title": "Wildfire Shale Butte, Lincoln, Idaho",
        "categories": "Wildfires"
      }
    },
    {
      "type": "Feature",
      "geometry": {
        "type": "Point",
        "coordinates": [
          -121.0287,
          48.549617
        ]
      },
      "properties": {
        "id": "EONET_23684",
        "title": "Wildfire Thunder Creek, Skagit, Washington",
        "categories": "Wildfires"
      }
    },
    {
      "type": "Feature",
      "geometry": {
        "type": "Point",
        "coordinates": [
          -118.280776,
          44.827902
        ]
      },
      "properties": {
        "id": "EONET_23211",
        "title": "Wildfire McCulley, Baker, Oregon",
        "categories": "Wildfires"
      }
    },
    {
      "type": "Feature",
      "geometry": {
        "type": "Point",
        "coordinates": [
          -119.952333,
          39.5425
        ]
      },
      "properties": {
        "id": "EONET_23218",
        "title": "Wildfire Hawk, Washoe, Nevada",
        "categories": "Wildfires"
      }
    },
    {
      "type": "Feature",
      "geometry": {
        "type": "Point",
        "coordinates": [
          -119.952333,
          39.5425
        ]
      },
      "properties": {
        "id": "EONET_23460",
        "title": "Wildfire Hawk, Washoe, Nevada",
        "categories": "Wildfires"
      }
    },
    {
      "type": "Feature",
      "geometry": {
        "type": "Point",
        "coordinates": [
          -120.19615,
          46.17514
        ]
      },
      "properties": {
        "id": "EONET_23214",
        "title": "Wildfire Colwash, Yakima, Washington",
        "categories": "Wildfires"
      }
    },
    {
      "type": "Feature",
      "geometry": {
        "type": "Point",
        "coordinates": [
          -113.099333,
          47.427667
        ]
      },
      "properties": {
        "id": "EONET_23451",
        "title": "Wildfire Camp Creek, Powell, Montana",
        "categories": "Wildfires"
      }
    },
    {
      "type": "Feature",
      "geometry": {
        "type": "Point",
        "coordinates": [
          -106.431885,
          34.678749
        ]
      },
      "properties": {
        "id": "EONET_24492",
        "title": "Wildfire WHISKEY, Torrance, New Mexico",
        "categories": "Wildfires"
      }
    },
    {
      "type": "Feature",
      "geometry": {
        "type": "Point",
        "coordinates": [
          -80.836833,
          25.545083
        ]
      },
      "properties": {
        "id": "EONET_23224",
        "title": "Wildfire Chipmunk, Miami-Dade, Florida",
        "categories": "Wildfires"
      }
    },
    {
      "type": "Feature",
      "geometry": {
        "type": "Point",
        "coordinates": [
          -96.338449,
          36.876944
        ]
      },
      "properties": {
        "id": "EONET_23228",
        "title": "Wildfire BISON, Osage, Oklahoma",
        "categories": "Wildfires"
      }
    },
    {
      "type": "Feature",
      "geometry": {
        "type": "Point",
        "coordinates": [
          -98.185052,
          35.164635
        ]
      },
      "properties": {
        "id": "EONET_23230",
        "title": "Wildfire 2690, Caddo, Oklahoma",
        "categories": "Wildfires"
      }
    },
    {
      "type": "Feature",
      "geometry": {
        "type": "Point",
        "coordinates": [
          -112.677817,
          41.80951
        ]
      },
      "properties": {
        "id": "EONET_23217",
        "title": "Wildfire Salt Wells, Box Elder, Utah",
        "categories": "Wildfires"
      }
    },
    {
      "type": "Feature",
      "geometry": {
        "type": "Point",
        "coordinates": [
          -92.49237337,
          33.16826652
        ]
      },
      "properties": {
        "id": "EONET_23213",
        "title": "Wildfire Pine Tree Rd, Union, Arkansas",
        "categories": "Wildfires"
      }
    },
    {
      "type": "Feature",
      "geometry": {
        "type": "Point",
        "coordinates": [
          -115.08586,
          48.16151
        ]
      },
      "properties": {
        "id": "EONET_23210",
        "title": "Wildfire Deer Creek, Lincoln, Montana",
        "categories": "Wildfires"
      }
    },
    {
      "type": "Feature",
      "geometry": {
        "type": "Point",
        "coordinates": [
          -106.786583,
          37.38545
        ]
      },
      "properties": {
        "id": "EONET_24493",
        "title": "Wildfire Swiss Roll, Archuleta, Colorado",
        "categories": "Wildfires"
      }
    },
    {
      "type": "Feature",
      "geometry": {
        "type": "Point",
        "coordinates": [
          -100.4783333,
          31.14888889
        ]
      },
      "properties": {
        "id": "EONET_22927",
        "title": "Prescribed Fire RX Tom Green 7105, Tom Green, Texas",
        "categories": "Wildfires"
      }
    },
    {
      "type": "Feature",
      "geometry": {
        "type": "Point",
        "coordinates": [
          -121.255867,
          47.4708
        ]
      },
      "properties": {
        "id": "EONET_23212",
        "title": "Wildfire KING, Kittitas, Washington",
        "categories": "Wildfires"
      }
    },
    {
      "type": "Feature",
      "geometry": {
        "type": "Point",
        "coordinates": [
          -80.823433,
          25.434317
        ]
      },
      "properties": {
        "id": "EONET_23222",
        "title": "Wildfire Movie Dome, Miami-Dade, Florida",
        "categories": "Wildfires"
      }
    },
    {
      "type": "Feature",
      "geometry": {
        "type": "Point",
        "coordinates": [
          -109.52349,
          45.8358
        ]
      },
      "properties": {
        "id": "EONET_22931",
        "title": "Wildfire Windmill, Stillwater, Montana",
        "categories": "Wildfires"
      }
    },
    {
      "type": "Feature",
      "geometry": {
        "type": "Point",
        "coordinates": [
          -113.094917,
          42.490167
        ]
      },
      "properties": {
        "id": "EONET_22929",
        "title": "Wildfire North Heglar, Cassia, Idaho",
        "categories": "Wildfires"
      }
    },
    {
      "type": "Feature",
      "geometry": {
        "type": "Point",
        "coordinates": [
          -115.539617,
          43.847167
        ]
      },
      "properties": {
        "id": "EONET_23220",
        "title": "Wildfire CROOKED, Boise, Idaho",
        "categories": "Wildfires"
      }
    },
    {
      "type": "Feature",
      "geometry": {
        "type": "Point",
        "coordinates": [
          -107.4745,
          45.718833
        ]
      },
      "properties": {
        "id": "EONET_22933",
        "title": "Wildfire Sarpy, Big Horn, Montana",
        "categories": "Wildfires"
      }
    },
    {
      "type": "Feature",
      "geometry": {
        "type": "Point",
        "coordinates": [
          -143.0636,
          63.34225
        ]
      },
      "properties": {
        "id": "EONET_22928",
        "title": "Wildfire Mukluk, Southeast Fairbanks, Alaska",
        "categories": "Wildfires"
      }
    },
    {
      "type": "Feature",
      "geometry": {
        "type": "Point",
        "coordinates": [
          -120.774487,
          43.00919
        ]
      },
      "properties": {
        "id": "EONET_22798",
        "title": "Wildfire Picture Rock, Lake, Oregon",
        "categories": "Wildfires"
      }
    },
    {
      "type": "Feature",
      "geometry": {
        "type": "Point",
        "coordinates": [
          -88.4663889,
          30.4175
        ]
      },
      "properties": {
        "id": "EONET_22932",
        "title": "Wildfire Jackson - Hwy 90, Jackson, Mississippi",
        "categories": "Wildfires"
      }
    },
    {
      "type": "Feature",
      "geometry": {
        "type": "Point",
        "coordinates": [
          -103.9452,
          33.50765
        ]
      },
      "properties": {
        "id": "EONET_22800",
        "title": "Wildfire CATO 2, Chaves, New Mexico",
        "categories": "Wildfires"
      }
    }
  ],
  "updated_utc": "2026-09-18T20:30:54.488717+00:00"
}